NORAD_CAT_ID,OBJECT_NAME,OBJECT_TYPE,EPOCH,MEAN_MOTION,ECCENTRICITY,INCLINATION,RA_OF_ASC_NODE,ARG_OF_PERICENTER,MEAN_ANOMALY,BSTAR,MEAN_MOTION_DOT,MEAN_MOTION_DDOT,TLE_LINE0,TLE_LINE1,TLE_LINE2,SEMIMAJOR_AXIS,PERIOD,APOGEE,PERIGEE,DECAYED
53029.0,STARLINK-4143,PAYLOAD,2023-10-27 20:41:00,15.08838964,0.0001513,53.2192,351.9933,85.9185,274.198,-1.6714e-05,-5.54e-06,0.0,0 STARLINK-4143,1 53029U 22076AV  23300.86180780 -.00000554  00000-0 -16714-4 0  9991,2 53029  53.2192 351.9933 0001513  85.9185 274.1980 15.08838964 73184,6917.884,95.438,540.795,538.702,0.0
53029.0,STARLINK-4143,PAYLOAD,2023-10-28 10:59:28,15.08833964,0.0001616,53.218,349.3205,88.0981,272.0196,-5.3081e-05,-1.133e-05,0.0,0 STARLINK-4143,1 53029U 22076AV  23301.45797306 -.00001133  00000-0 -53081-4 0  9997,2 53029  53.2180 349.3205 0001616  88.0981 272.0196 15.08833964 72805,6917.899,95.438,540.882,538.646,0.0
53029.0,STARLINK-4143,PAYLOAD,2023-10-28 20:31:47,15.08839439,0.0001739,53.2187,347.5339,85.0803,275.0387,0.00010262,1.345e-05,0.0,0 STARLINK-4143,1 53029U 22076AV  23301.85541324  .00001345  00000-0  10262-3 0  9994,2 53029  53.2187 347.5339 0001739  85.0803 275.0387 15.08839439 72860,6917.882,95.438,540.95,538.544,0.0
53029.0,STARLINK-4143,PAYLOAD,2023-10-29 02:53:20,15.08840837,0.0001494,53.2171,346.345,86.1019,274.0144,0.00017283,2.464e-05,0.0,0 STARLINK-4143,1 53029U 22076AV  23302.12037332  .00002464  00000-0  17283-3 0  9997,2 53029  53.2171 346.3450 0001494  86.1019 274.0144 15.08840837 73374,6917.878,95.438,540.776,538.709,0.0
53029.0,STARLINK-4143,PAYLOAD,2023-10-29 09:14:52,15.08847937,0.000149,53.2174,345.1558,87.3449,272.7714,0.0003186,4.787e-05,0.0,0 STARLINK-4143,1 53029U 22076AV  23302.38533131  .00004787  00000-0  31860-3 0  9990,2 53029  53.2174 345.1558 0001490  87.3449 272.7714 15.08847937 72947,6917.856,95.437,540.752,538.69,0.0
53029.0,STARLINK-4143,PAYLOAD,2023-10-30 02:44:07,15.0883484,0.0001474,53.2185,341.8843,104.226,255.8896,0.00011982,1.619e-05,0.0,0 STARLINK-4143,1 53029U 22076AV  23303.11397740  .00001619  00000-0  11982-3 0  9990,2 53029  53.2185 341.8843 0001474 104.2260 255.8896 15.08834840 73528,6917.896,95.438,540.781,538.741,0.0
53029.0,STARLINK-4143,PAYLOAD,2023-10-30 09:05:40,15.08839525,0.0001494,53.2171,340.695,94.5777,265.5386,0.0001415,1.965e-05,0.0,0 STARLINK-4143,1 53029U 22076AV  23303.37893661  .00001965  00000-0  14150-3 0  9995,2 53029  53.2171 340.6950 0001494  94.5777 265.5386 15.08839525 73094,6917.882,95.438,540.78,538.713,0.0
53029.0,STARLINK-4143,PAYLOAD,2023-10-31 08:56:27,15.0883849,0.0001469,53.2172,336.2344,94.005,266.111,0.0001144,1.533e-05,0.0,0 STARLINK-4143,1 53029U 22076AV  23304.37254128  .00001533  00000-0  11440-3 0  9995,2 53029  53.2172 336.2344 0001469  94.0050 266.1110 15.08838490 73715,6917.885,95.438,540.766,538.734,0.0
53029.0,STARLINK-4143,PAYLOAD,2023-11-01 08:47:14,15.08849016,0.0001491,53.217,331.7742,93.4281,266.6882,0.0003723,5.644e-05,0.0,0 STARLINK-4143,1 53029U 22076AV  23305.36613914  .00005644  00000-0  37230-3 0  9999,2 53029  53.2170 331.7742 0001491  93.4281 266.6882 15.08849016 73390,6917.853,95.437,540.749,538.686,0.0
53029.0,STARLINK-4143,PAYLOAD,2023-11-01 18:19:33,15.0884566,0.0001437,53.2172,329.9882,92.0357,268.0799,0.0002063,2.997e-05,0.0,0 STARLINK-4143,1 53029U 22076AV  23305.76357871  .00002997  00000-0  20630-3 0  9994,2 53029  53.2172 329.9882 0001437  92.0357 268.0799 15.08845660 73928,6917.863,95.437,540.722,538.734,0.0
53029.0,STARLINK-4143,PAYLOAD,2023-11-02 11:48:47,15.08855565,0.0001524,53.2172,326.719,100.3142,259.8022,0.00028335,4.226e-05,0.0,0 STARLINK-4143,1 53029U 22076AV  23306.49221266  .00004226  00000-0  28335-3 0  9990,2 53029  53.2172 326.7190 0001524 100.3142 259.8022 15.08855565 73569,6917.833,95.437,540.752,538.644,0.0
53029.0,STARLINK-4143,PAYLOAD,2023-11-02 18:10:19,15.08846704,0.0001373,53.2171,325.5265,85.0583,275.0565,7.9716e-05,9.81e-06,0.0,0 STARLINK-4143,1 53029U 22076AV  23306.75717430  .00000981  00000-0  79716-4 0  9996,2 53029  53.2171 325.5265 0001373  85.0583 275.0565 15.08846704 73600,6917.86,95.437,540.675,538.775,0.0
53029.0,STARLINK-4143,PAYLOAD,2023-11-03 02:07:15,15.08835825,0.0001595,53.2172,324.0452,102.0538,258.0633,-0.00011663,-2.144e-05,0.0,0 STARLINK-4143,1 53029U 22076AV  23307.08837905 -.00002144  00000-0 -11663-3 0  9994,2 53029  53.2172 324.0452 0001595 102.0538 258.0633 15.08835825 74126,6917.893,95.438,540.862,538.655,0.0
53029.0,STARLINK-4143,PAYLOAD,2023-11-03 08:28:48,15.08836785,0.00016,53.2174,322.8559,103.7311,256.3859,-6.9161e-05,-1.388e-05,0.0,0 STARLINK-4143,1 53029U 22076AV  23307.35333925 -.00001388  00000-0 -69161-4 0  9993,2 53029  53.2174 322.8559 0001600 103.7311 256.3859 15.08836785 73694,6917.89,95.438,540.862,538.648,0.0
53029.0,STARLINK-4143,PAYLOAD,2023-11-03 18:01:07,15.08837635,0.0001633,53.2179,321.0715,101.3309,258.7867,-3.5336e-06,-3.44e-06,0.0,0 STARLINK-4143,1 53029U 22076AV  23307.75078058 -.00000344  00000-0 -35336-5 0  9999,2 53029  53.2179 321.0715 0001633 101.3309 258.7867 15.08837635 73758,6917.888,95.438,540.882,538.623,0.0
53029.0,STARLINK-4143,PAYLOAD,2023-11-04 05:08:49,15.08839414,0.0001625,53.2178,318.99,102.5213,257.5961,0.00010735,1.421e-05,0.0,0 STARLINK-4143,1 53029U 22076AV  23308.21446173  .00001421  00000-0  10735-3 0  9997,2 53029  53.2178 318.9900 0001625 102.5213 257.5961 15.08839414 74295,6917.882,95.438,540.871,538.623,0.0
53029.0,STARLINK-4143,PAYLOAD,2023-11-04 09:54:58,15.0884623,0.0001596,53.2176,318.0972,100.8582,259.259,0.00026235,3.89e-05,0.0,0 STARLINK-4143,1 53029U 22076AV  23308.41317988  .00003890  00000-0  26235-3 0  9994,2 53029  53.2176 318.0972 0001596 100.8582 259.2590 15.08846230 73852,6917.861,95.437,540.83,538.622,0.0
53029.0,STARLINK-4143,PAYLOAD,2023-11-04 17:51:54,15.08842755,0.0001711,53.2185,316.6069,84.4886,275.6301,0.00017498,2.498e-05,0.0,0 STARLINK-4143,1 53029U 22076AV  23308.74438238  .00002498  00000-0  17498-3 0  9996,2 53029  53.2185 316.6069 0001711  84.4886 275.6301 15.08842755 73902,6917.872,95.437,540.921,538.553,0.0
53029.0,STARLINK-4143,PAYLOAD,2023-11-05 08:10:22,15.08845276,0.0001611,53.2179,313.9337,87.3698,272.7478,0.00025509,3.775e-05,0.0,0 STARLINK-4143,1 53029U 22076AV  23309.34054279  .00003775  00000-0  25509-3 0  9993,2 53029  53.2179 313.9337 0001611  87.3698 272.7478 15.08845276 74461,6917.864,95.437,540.844,538.615,0.0
53029.0,STARLINK-4143,PAYLOAD,2023-11-06 06:25:46,15.08857947,0.0001548,53.218,309.7711,99.773,260.3437,0.00042623,6.505e-05,0.0,0 STARLINK-4143,1 53029U 22076AV  23310.26789701  .00006505  00000-0  42623-3 0  9991,2 53029  53.2180 309.7711 0001548  99.7730 260.3437 15.08857947 74135,6917.826,95.436,540.761,538.62,0.0
53029.0,STARLINK-4143,PAYLOAD,2023-11-06 17:33:29,15.08824722,0.0001757,53.2186,307.685,96.3367,263.7825,-0.00019697,-3.42e-05,0.0,0 STARLINK-4143,1 53029U 22076AV  23310.73159102 -.00003420  00000-0 -19697-3 0  9999,2 53029  53.2186 307.6850 0001757  96.3367 263.7825 15.08824722 74675,6917.927,95.439,541.008,538.577,0.0
53029.0,STARLINK-4143,PAYLOAD,2023-11-07 03:05:49,15.08801674,0.0001446,53.216,305.9044,81.2114,278.9042,-0.00052327,-8.597e-05,0.0,0 STARLINK-4143,1 53029U 22076AV  23311.12904513 -.00008597  00000-0 -52327-3 0  9994,2 53029  53.2160 305.9044 0001446  81.2114 278.9042 15.08801674 74738,6917.998,95.44,540.863,538.862,0.0
53029.0,STARLINK-4143,PAYLOAD,2023-11-07 09:27:21,15.08829706,0.0001462,53.2174,304.7119,107.8295,252.2857,0.00056295,8.68e-05,0.0,0 STARLINK-4143,1 53029U 22076AV  23311.39399977  .00008680  00000-0  56295-3 0  9994,2 53029  53.2174 304.7119 0001462 107.8295 252.2857 15.08829706 74775,6917.912,95.438,540.788,538.765,0.0
53029.0,STARLINK-4143,PAYLOAD,2023-11-08 09:18:08,15.08873293,0.0001247,53.2168,300.2513,93.2861,266.8274,0.0010762,0.00016897,0.0,0 STARLINK-4143,1 53029U 22076AV  23312.38759354  .00016897  00000-0  10762-2 0  9990,2 53029  53.2168 300.2513 0001247  93.2861 266.8274 15.08873293 74926,6917.779,95.435,540.506,538.781,0.0
53029.0,STARLINK-4143,PAYLOAD,2023-11-09 04:22:45,15.08860417,0.0001313,53.2175,296.6777,95.6781,264.4361,0.0005061,7.78e-05,0.0,0 STARLINK-4143,1 53029U 22076AV  23313.18246784  .00007780  00000-0  50610-3 0  9995,2 53029  53.2175 296.6777 0001313  95.6781 264.4361 15.08860417 75044,6917.818,95.436,540.591,538.775,0.0
53029.0,STARLINK-4143,PAYLOAD,2023-11-09 09:08:54,15.08871895,0.0001219,53.217,295.7917,98.7518,261.3612,0.00085082,0.00013291,0.0,0 STARLINK-4143,1 53029U 22076AV  23313.38118353  .00013291  00000-0  85082-3 0  9992,2 53029  53.2170 295.7917 0001219  98.7518 261.3612 15.08871895 74600,6917.783,95.436,540.491,538.805,0.0
53029.0,STARLINK-4143,PAYLOAD,2023-11-10 04:13:32,15.08842627,0.0001392,53.2174,292.218,88.6068,271.5083,0.00030742,4.608e-05,0.0,0 STARLINK-4143,1 53029U 22076AV  23314.17606734  .00004608  00000-0  30742-3 0  9990,2 53029  53.2174 292.2180 0001392  88.6068 271.5083 15.08842627 75199,6917.872,95.437,540.7,538.774,0.0
53029.0,STARLINK-4143,PAYLOAD,2023-11-10 05:48:55,15.08845711,0.0001388,53.2174,291.9267,86.3709,273.7442,0.00021579,3.149e-05,0.0,0 STARLINK-4143,1 53029U 22076AV  23314.24230567  .00003149  00000-0  21579-3 0  9992,2 53029  53.2174 291.9267 0001388  86.3709 273.7442 15.08845711 74732,6917.863,95.437,540.688,538.768,0.0
53029.0,STARLINK-4143,PAYLOAD,2023-11-10 15:21:14,15.08841036,0.0001339,53.2175,290.1438,83.9236,276.1909,0.00034224,5.163e-05,0.0,0 STARLINK-4143,1 53029U 22076AV  23314.63974865  .00005163  00000-0  34224-3 0  9990,2 53029  53.2175 290.1438 0001339  83.9236 276.1909 15.08841036 74795,6917.877,95.437,540.669,538.816,0.0
53029.0,STARLINK-4143,PAYLOAD,2023-11-11 04:04:19,15.08833877,0.000148,53.2166,287.7644,91.3869,268.7293,0.00018286,2.623e-05,0.0,0 STARLINK-4143,1 53029U 22076AV  23315.16967173  .00002623  00000-0  18286-3 0  9991,2 53029  53.2166 287.7644 0001480  91.3869 268.7293 15.08833877 75347,6917.899,95.438,540.788,538.74,0.0
